G90
G21
G90
G21
G00 X0.000000 Y0.000000
G1 Z5
G01 X210.008611 Y0.000000 F98
G01 X210.008611 Y297.003611 F98
G01 X0.000000 Y297.003611 F98
G01 X0.000000 Y0.000000 F98
G1 Z1
G00 X152.788056 Y36.371389
G1 Z5
G01 X155.610278 Y31.714722 F98
G01 X162.277778 Y34.043056 F98
G01 X162.277778 Y41.768889 F98
G01 X157.550556 Y40.322500 F98
G01 X152.788056 Y36.371389 F98
G1 Z1
G00 X127.952500 Y32.561389
G1 Z5
G01 X133.808611 Y37.218056 F98
G01 X141.181667 Y34.889722 F98
G01 X145.273889 Y41.486667 F98
G01 X137.830278 Y45.226111 F98
G1 Z1
G00 X108.690833 Y36.371389
G1 Z5
G01 X120.438333 Y36.371389 F98
G1 Z1
G00 X99.906667 Y37.853056
G1 Z5
G01 X99.804893 Y38.357844 F98
G01 X99.513000 Y38.828006 F98
G01 X99.051132 Y39.253470 F98
G01 X98.439434 Y39.624162 F98
G01 X97.698050 Y39.930011 F98
G01 X96.847124 Y40.160944 F98
G01 X95.906800 Y40.306891 F98
G01 X94.897222 Y40.357778 F98
G01 X93.887644 Y40.306891 F98
G01 X92.947320 Y40.160944 F98
G01 X92.096394 Y39.930011 F98
G01 X91.355010 Y39.624162 F98
G01 X90.743312 Y39.253470 F98
G01 X90.281445 Y38.828006 F98
G01 X89.989552 Y38.357844 F98
G01 X89.887778 Y37.853056 F98
G01 X89.989552 Y37.348267 F98
G01 X90.281445 Y36.878105 F98
G01 X90.743312 Y36.452642 F98
G01 X91.355010 Y36.081949 F98
G01 X92.096394 Y35.776101 F98
G01 X92.947320 Y35.545167 F98
G01 X93.887644 Y35.399220 F98
G01 X94.897222 Y35.348333 F98
G01 X95.906800 Y35.399220 F98
G01 X96.847124 Y35.545167 F98
G01 X97.698050 Y35.776101 F98
G01 X98.439434 Y36.081949 F98
G01 X99.051132 Y36.452642 F98
G01 X99.513000 Y36.878105 F98
G01 X99.804893 Y37.348267 F98
G01 X99.906667 Y37.853056 F98
G1 Z1
G00 X80.468611 Y35.348333
G1 Z5
G02 X80.468611 Y35.348333 I-5.009444 J0.000000 F98
G1 Z1
G00 X35.277778 Y35.277778
G1 Z5
G01 X105.833333 Y35.277778 F98
G01 X70.555556 Y105.833333 F98
G01 X35.277778 Y35.277778 F98
G1 Z1
G00 X33.161111 Y30.338889
G1 Z5
G01 X41.733611 Y30.338889 F98
G01 X41.875805 Y30.374725 F98
G01 X42.008245 Y30.477504 F98
G01 X42.128094 Y30.640133 F98
G01 X42.232514 Y30.855520 F98
G01 X42.318669 Y31.116571 F98
G01 X42.383721 Y31.416193 F98
G01 X42.424832 Y31.747293 F98
G01 X42.439167 Y32.102778 F98
G01 X42.439167 Y38.558611 F98
G01 X42.424832 Y38.914096 F98
G01 X42.383721 Y39.245196 F98
G01 X42.318669 Y39.544818 F98
G01 X42.232514 Y39.805869 F98
G01 X42.128094 Y40.021255 F98
G01 X42.008245 Y40.183885 F98
G01 X41.875805 Y40.286664 F98
G01 X41.733611 Y40.322500 F98
G01 X33.161111 Y40.322500 F98
G01 X33.018917 Y40.286664 F98
G01 X32.886477 Y40.183885 F98
G01 X32.766628 Y40.021255 F98
G01 X32.662208 Y39.805869 F98
G01 X32.576053 Y39.544818 F98
G01 X32.511002 Y39.245196 F98
G01 X32.469890 Y38.914096 F98
G01 X32.455556 Y38.558611 F98
G01 X32.455556 Y32.102778 F98
G01 X32.469890 Y31.747293 F98
G01 X32.511002 Y31.416193 F98
G01 X32.576053 Y31.116571 F98
G01 X32.662208 Y30.855520 F98
G01 X32.766628 Y30.640133 F98
G01 X32.886477 Y30.477504 F98
G01 X33.018917 Y30.374725 F98
G01 X33.161111 Y30.338889 F98
G1 Z1
G00 X32.455556 Y60.536667
G1 Z5
G01 X42.439167 Y60.536667 F98
G01 X42.439167 Y70.520278 F98
G01 X32.455556 Y70.520278 F98
G01 X32.455556 Y60.536667 F98
G1 Z1
G00 X49.635833 Y60.536667
G1 Z5
G01 X59.619444 Y60.536667 F98
G01 X59.619444 Y70.520278 F98
G01 X49.635833 Y70.520278 F98
G01 X49.635833 Y60.536667 F98
G1 Z1
G00 X79.516111 Y62.723889
G1 Z5
G01 X92.357222 Y65.510833 F98
G01 X95.011875 Y64.143819 F98
G01 X98.671944 Y62.723889 F98
G01 X104.346155 Y61.426328 F98
G01 X109.563958 Y61.127569 F98
G01 X114.636241 Y61.344748 F98
G01 X119.873889 Y61.595000 F98
G01 X123.690503 Y61.561927 F98
G01 X128.181806 Y61.224583 F98
G01 X133.308108 Y60.463906 F98
G01 X139.029722 Y59.160833 F98
G01 X145.238611 Y66.428056 F98
G01 X143.970816 Y68.073433 F98
G01 X142.372292 Y69.827951 F98
G01 X140.416580 Y71.602313 F98
G01 X138.077222 Y73.307222 F98
G01 X134.584860 Y75.187555 F98
G01 X131.106554 Y76.430408 F98
G01 X127.742349 Y77.145748 F98
G01 X124.592292 Y77.443542 F98
G01 X121.756427 Y77.433758 F98
G01 X119.334800 Y77.226363 F98
G01 X117.427458 Y76.931325 F98
G01 X116.134444 Y76.658611 F98
G01 X91.933889 Y74.436111 F98
G1 Z1
G00 X79.516111 Y84.948889
G1 Z5
G01 X92.357222 Y87.735833 F98
G01 X95.011875 Y86.368819 F98
G01 X98.671944 Y84.948889 F98
G01 X104.346155 Y83.651328 F98
G01 X109.563958 Y83.352569 F98
G01 X114.636241 Y83.569748 F98
G01 X119.873889 Y83.820000 F98
G01 X123.690503 Y83.786927 F98
G01 X128.181806 Y83.449583 F98
G01 X133.308108 Y82.688906 F98
G01 X139.029722 Y81.385833 F98
G01 X145.238611 Y88.653056 F98
G01 X143.970816 Y90.298433 F98
G01 X142.372292 Y92.052951 F98
G01 X140.416580 Y93.827313 F98
G01 X138.077222 Y95.532222 F98
G01 X134.584860 Y97.412555 F98
G01 X131.106554 Y98.655408 F98
G01 X127.742349 Y99.370748 F98
G01 X124.592292 Y99.668542 F98
G01 X121.756427 Y99.658758 F98
G01 X119.334800 Y99.451363 F98
G01 X117.427458 Y99.156325 F98
G01 X116.134444 Y98.883611 F98
G01 X91.933889 Y96.661111 F98
G01 X79.516111 Y84.948889 F98
G1 Z1
M2